{
  "type": "FeatureCollection",
  "features": [
    {
      "type": "Feature",
      "geometry": {
        "type": "Point",
        "coordinates": [
          -71.4788598,
          -32.9491941,
          1523.9999512320016
        ]
      },
      "properties": {
        "id": 0,
        "title": "SCVM",
        "desription": "Air Race #1 at Base Aeronaval y Aeropuerto Concón",
        "marker-symbol": "1",
        "fill-opacity": 1
      }
    },
    {
      "type": "Feature",
      "geometry": {
        "type": "Point",
        "coordinates": [
          -71.39217825881163,
          -33.11042162493514,
          2377.4399239219224
        ]
      },
      "properties": {
        "id": 1,
        "title": "CP-1",
        "desription": "Air Race #1 at Base Aeronaval y Aeropuerto Concón",
        "marker-symbol": "triangle",
        "fill-opacity": 1
      }
    },
    {
      "type": "Feature",
      "geometry": {
        "type": "Point",
        "coordinates": [
          -71.36830780508906,
          -33.09193948459726,
          2834.639909291523
        ]
      },
      "properties": {
        "id": 2,
        "title": "CP-2",
        "desription": "Air Race #1 at Base Aeronaval y Aeropuerto Concón",
        "marker-symbol": "triangle",
        "fill-opacity": 1
      }
    },
    {
      "type": "Feature",
      "geometry": {
        "type": "Point",
        "coordinates": [
          -71.40616271693264,
          -32.98784374690428,
          2499.3599200204826
        ]
      },
      "properties": {
        "id": 3,
        "title": "CP-3",
        "desription": "Air Race #1 at Base Aeronaval y Aeropuerto Concón",
        "marker-symbol": "triangle",
        "fill-opacity": 1
      }
    },
    {
      "type": "Feature",
      "geometry": {
        "type": "Point",
        "coordinates": [
          -71.50425904010284,
          -33.03061484686306,
          2682.2399141683227
        ]
      },
      "properties": {
        "id": 4,
        "title": "CP-4",
        "desription": "Air Race #1 at Base Aeronaval y Aeropuerto Concón",
        "marker-symbol": "triangle",
        "fill-opacity": 1
      }
    },
    {
      "type": "Feature",
      "geometry": {
        "type": "Point",
        "coordinates": [
          -71.5406928146423,
          -32.97553638491722,
          1889.759939527682
        ]
      },
      "properties": {
        "id": 5,
        "title": "CP-5",
        "desription": "Air Race #1 at Base Aeronaval y Aeropuerto Concón",
        "marker-symbol": "triangle",
        "fill-opacity": 1
      }
    },
    {
      "type": "Feature",
      "geometry": {
        "type": "Point",
        "coordinates": [
          -71.5861152343081,
          -32.977226274041314,
          1828.799941478402
        ]
      },
      "properties": {
        "id": 6,
        "title": "CP-6",
        "desription": "Air Race #1 at Base Aeronaval y Aeropuerto Concón",
        "marker-symbol": "triangle",
        "fill-opacity": 1
      }
    },
    {
      "type": "Feature",
      "geometry": {
        "type": "Point",
        "coordinates": [
          -71.53397253207955,
          -33.08859742814657,
          1554.4799502566416
        ]
      },
      "properties": {
        "id": 7,
        "title": "CP-7",
        "desription": "Air Race #1 at Base Aeronaval y Aeropuerto Concón",
        "marker-symbol": "triangle",
        "fill-opacity": 1
      }
    },
    {
      "type": "Feature",
      "geometry": {
        "type": "Point",
        "coordinates": [
          -71.49995984358576,
          -33.097442708788165,
          2407.9199229465626
        ]
      },
      "properties": {
        "id": 8,
        "title": "CP-8",
        "desription": "Air Race #1 at Base Aeronaval y Aeropuerto Concón",
        "marker-symbol": "triangle",
        "fill-opacity": 1
      }
    },
    {
      "type": "Feature",
      "geometry": {
        "type": "Point",
        "coordinates": [
          -71.32260525230772,
          -32.96699142874148,
          2103.1199327001623
        ]
      },
      "properties": {
        "id": 9,
        "title": "CP-FINISH",
        "desription": "Air Race #1 at Base Aeronaval y Aeropuerto Concón",
        "marker-symbol": "racetrack",
        "fill-opacity": 1
      }
    },
    {
      "type": "Feature",
      "geometry": {
        "type": "LineString",
        "coordinates": [
          [
            -71.4788598,
            -32.9491941,
            1523.9999512320016
          ],
          [
            -71.39217825881163,
            -33.11042162493514,
            2377.4399239219224
          ],
          [
            -71.36830780508906,
            -33.09193948459726,
            2834.639909291523
          ],
          [
            -71.40616271693264,
            -32.98784374690428,
            2499.3599200204826
          ],
          [
            -71.50425904010284,
            -33.03061484686306,
            2682.2399141683227
          ],
          [
            -71.5406928146423,
            -32.97553638491722,
            1889.759939527682
          ],
          [
            -71.5861152343081,
            -32.977226274041314,
            1828.799941478402
          ],
          [
            -71.53397253207955,
            -33.08859742814657,
            1554.4799502566416
          ],
          [
            -71.49995984358576,
            -33.097442708788165,
            2407.9199229465626
          ],
          [
            -71.32260525230772,
            -32.96699142874148,
            2103.1199327001623
          ]
        ]
      },
      "properties": {
        "id": 0,
        "title": "Air Race #1 at Base Aeronaval y Aeropuerto Concón",
        "description": "Your ASG29 is racing through the sky on this early morning with almost no wind. The flight distance is 110 km.",
        "stroke": "#FF1493",
        "stroke-opacity": 1
      }
    },
    {
      "type": "Feature",
      "geometry": {
        "type": "Point",
        "coordinates": [
          -71.52140759458494,
          -32.94865305568496,
          1859.2799405030419
        ]
      },
      "properties": {
        "id": 101,
        "title": "CP-FINISH",
        "desription": "Air Race #2 at Base Aeronaval y Aeropuerto Concón",
        "marker-symbol": "racetrack",
        "fill-opacity": 0.33
      }
    },
    {
      "type": "Feature",
      "geometry": {
        "type": "LineString",
        "coordinates": [
          [
            -71.4788598,
            -32.9491941,
            1523.9999512320016
          ],
          [
            -71.64069301089573,
            -32.79067765468759,
            2042.1599346508822
          ],
          [
            -71.79013202286546,
            -33.01855359350235,
            2377.4399239219224
          ],
          [
            -71.66151646662914,
            -33.13517418071586,
            2834.639909291523
          ],
          [
            -71.52140759458494,
            -32.94865305568496,
            1859.2799405030419
          ]
        ]
      },
      "properties": {
        "id": 100,
        "title": "Air Race #2 at Base Aeronaval y Aeropuerto Concón",
        "description": "Your ASG29 is racing through the sky on this early morning with almost no wind. The flight distance is 99 km.",
        "stroke": "#C2E812",
        "stroke-opacity": 0.33
      }
    },
    {
      "type": "Feature",
      "geometry": {
        "type": "Point",
        "coordinates": [
          -71.42446339465583,
          -32.74556919922595,
          1676.3999463552018
        ]
      },
      "properties": {
        "id": 201,
        "title": "CP-FINISH",
        "desription": "Air Race #3 at Base Aeronaval y Aeropuerto Concón",
        "marker-symbol": "racetrack",
        "fill-opacity": 0.33
      }
    },
    {
      "type": "Feature",
      "geometry": {
        "type": "LineString",
        "coordinates": [
          [
            -71.4788598,
            -32.9491941,
            1523.9999512320016
          ],
          [
            -71.3935334107335,
            -32.888027592179114,
            2377.4399239219224
          ],
          [
            -71.35519546275701,
            -32.94281375931128,
            2468.8799209958424
          ],
          [
            -71.15723911163684,
            -32.74320326421868,
            2042.1599346508822
          ],
          [
            -71.0568886747908,
            -32.741527459722626,
            2103.1199327001623
          ],
          [
            -71.10973898256421,
            -32.61297437030026,
            1554.4799502566416
          ],
          [
            -71.31933382090367,
            -32.6901425820622,
            2865.1199083161628
          ],
          [
            -71.3734417924255,
            -32.90679524993712,
            2651.7599151436825
          ],
          [
            -71.55362695849121,
            -32.937000968332946,
            2225.0399287987225
          ],
          [
            -71.53137004700956,
            -32.774437400629765,
            2682.2399141683227
          ],
          [
            -71.42446339465583,
            -32.74556919922595,
            1676.3999463552018
          ]
        ]
      },
      "properties": {
        "id": 200,
        "title": "Air Race #3 at Base Aeronaval y Aeropuerto Concón",
        "description": "Your ASG29 is racing through the sky on this morning with no wind. The flight distance is 187 km.",
        "stroke": "#91F5AD",
        "stroke-opacity": 0.33
      }
    },
    {
      "type": "Feature",
      "geometry": {
        "type": "Point",
        "coordinates": [
          -71.8344237631688,
          -33.40169002099054,
          1889.759939527682
        ]
      },
      "properties": {
        "id": 301,
        "title": "CP-FINISH",
        "desription": "Air Race #4 at Base Aeronaval y Aeropuerto Concón",
        "marker-symbol": "racetrack",
        "fill-opacity": 0.33
      }
    },
    {
      "type": "Feature",
      "geometry": {
        "type": "LineString",
        "coordinates": [
          [
            -71.4788598,
            -32.9491941,
            1523.9999512320016
          ],
          [
            -71.46413291126439,
            -32.91574274628229,
            2804.159910266883
          ],
          [
            -71.549429298513,
            -32.914899596884936,
            1554.4799502566416
          ],
          [
            -71.77237592736344,
            -33.09843225816315,
            1584.9599492812815
          ],
          [
            -71.6377859663552,
            -33.13759177978744,
            1584.9599492812815
          ],
          [
            -71.65089597868194,
            -33.21909331382713,
            1706.8799453798417
          ],
          [
            -71.83947902138172,
            -33.372706103025735,
            2743.199912217603
          ],
          [
            -71.8344237631688,
            -33.40169002099054,
            1889.759939527682
          ]
        ]
      },
      "properties": {
        "id": 300,
        "title": "Air Race #4 at Base Aeronaval y Aeropuerto Concón",
        "description": "Your ASG29 is racing through the sky on this morning with almost no wind. The flight distance is 152 km.",
        "stroke": "#F96900",
        "stroke-opacity": 0.33
      }
    },
    {
      "type": "Feature",
      "geometry": {
        "type": "Point",
        "coordinates": [
          -71.42496027597952,
          -33.51416998391585,
          2225.0399287987225
        ]
      },
      "properties": {
        "id": 401,
        "title": "CP-FINISH",
        "desription": "Air Race #5 at Base Aeronaval y Aeropuerto Concón",
        "marker-symbol": "racetrack",
        "fill-opacity": 0.33
      }
    },
    {
      "type": "Feature",
      "geometry": {
        "type": "LineString",
        "coordinates": [
          [
            -71.4788598,
            -32.9491941,
            1523.9999512320016
          ],
          [
            -71.58882573268657,
            -32.92980142606428,
            2682.2399141683227
          ],
          [
            -71.59412424714003,
            -33.06562191222974,
            2804.159910266883
          ],
          [
            -71.35050428825306,
            -33.14824327697721,
            2773.6799112422427
          ],
          [
            -71.3550775956821,
            -33.26181339505656,
            2225.0399287987225
          ],
          [
            -71.22112904670013,
            -33.35941411522569,
            1645.9199473305616
          ],
          [
            -71.37456732284842,
            -33.54675507876079,
            2164.079930749442
          ],
          [
            -71.42496027597952,
            -33.51416998391585,
            2225.0399287987225
          ]
        ]
      },
      "properties": {
        "id": 400,
        "title": "Air Race #5 at Base Aeronaval y Aeropuerto Concón",
        "description": "Your ASG29 is racing through the sky on this noon with almost no wind. The flight distance is 174 km.",
        "stroke": "#3B429F",
        "stroke-opacity": 0.33
      }
    },
    {
      "type": "Feature",
      "geometry": {
        "type": "Point",
        "coordinates": [
          -71.84937722000717,
          -32.820121076506375,
          1584.9599492812815
        ]
      },
      "properties": {
        "id": 501,
        "title": "CP-FINISH",
        "desription": "Air Race #6 at Base Aeronaval y Aeropuerto Concón",
        "marker-symbol": "racetrack",
        "fill-opacity": 0.33
      }
    },
    {
      "type": "Feature",
      "geometry": {
        "type": "LineString",
        "coordinates": [
          [
            -71.4788598,
            -32.9491941,
            1523.9999512320016
          ],
          [
            -71.62292217758933,
            -33.022370400583846,
            1859.2799405030419
          ],
          [
            -71.75258435163082,
            -33.01234719404569,
            2285.9999268480024
          ],
          [
            -71.84563482087397,
            -33.17178357212335,
            2651.7599151436825
          ],
          [
            -71.96733357517935,
            -33.156761302745885,
            2743.199912217603
          ],
          [
            -71.85491433501784,
            -32.93010498259093,
            2621.279916119043
          ],
          [
            -71.66367197806382,
            -32.91295936377175,
            1828.799941478402
          ],
          [
            -71.6791324968881,
            -32.842602705596946,
            2407.9199229465626
          ],
          [
            -71.84937722000717,
            -32.820121076506375,
            1584.9599492812815
          ]
        ]
      },
      "properties": {
        "id": 500,
        "title": "Air Race #6 at Base Aeronaval y Aeropuerto Concón",
        "description": "Your ASG29 is racing through the sky on this noon with wind from 300° at 6 kts. The flight distance is 166 km.",
        "stroke": "#FF1493",
        "stroke-opacity": 0.33
      }
    },
    {
      "type": "Feature",
      "geometry": {
        "type": "Point",
        "coordinates": [
          -71.61392888883799,
          -33.10450451669644,
          2225.0399287987225
        ]
      },
      "properties": {
        "id": 601,
        "title": "CP-FINISH",
        "desription": "Air Race #7 at Base Aeronaval y Aeropuerto Concón",
        "marker-symbol": "racetrack",
        "fill-opacity": 0.33
      }
    },
    {
      "type": "Feature",
      "geometry": {
        "type": "LineString",
        "coordinates": [
          [
            -71.4788598,
            -32.9491941,
            1523.9999512320016
          ],
          [
            -71.66120929734149,
            -32.95857334055652,
            2895.599907340803
          ],
          [
            -71.71770930877135,
            -32.90551011236549,
            1950.719937576962
          ],
          [
            -71.84049715941674,
            -33.14521863543092,
            2255.519927823362
          ],
          [
            -71.74281939223292,
            -33.197142390192774,
            2377.4399239219224
          ],
          [
            -71.61392888883799,
            -33.10450451669644,
            2225.0399287987225
          ]
        ]
      },
      "properties": {
        "id": 600,
        "title": "Air Race #7 at Base Aeronaval y Aeropuerto Concón",
        "description": "Your ASG29 is racing through the sky on this afternoon with almost no wind. The flight distance is 102 km.",
        "stroke": "#C2E812",
        "stroke-opacity": 0.33
      }
    },
    {
      "type": "Feature",
      "geometry": {
        "type": "Point",
        "coordinates": [
          -71.3392195748354,
          -33.12487866685877,
          1584.9599492812815
        ]
      },
      "properties": {
        "id": 701,
        "title": "CP-FINISH",
        "desription": "Air Race #8 at Base Aeronaval y Aeropuerto Concón",
        "marker-symbol": "racetrack",
        "fill-opacity": 0.33
      }
    },
    {
      "type": "Feature",
      "geometry": {
        "type": "LineString",
        "coordinates": [
          [
            -71.4788598,
            -32.9491941,
            1523.9999512320016
          ],
          [
            -71.3367939526647,
            -33.06024034519587,
            2103.1199327001623
          ],
          [
            -71.3392195748354,
            -33.12487866685877,
            1584.9599492812815
          ]
        ]
      },
      "properties": {
        "id": 700,
        "title": "Air Race #8 at Base Aeronaval y Aeropuerto Concón",
        "description": "Your ASG29 is racing through the sky on this late afternoon with almost no wind. The flight distance is 49 km.",
        "stroke": "#91F5AD",
        "stroke-opacity": 0.33
      }
    },
    {
      "type": "Feature",
      "geometry": {
        "type": "Point",
        "coordinates": [
          -71.59293616560137,
          -32.894321732320584,
          1798.3199424537618
        ]
      },
      "properties": {
        "id": 801,
        "title": "CP-FINISH",
        "desription": "Air Race #9 at Base Aeronaval y Aeropuerto Concón",
        "marker-symbol": "racetrack",
        "fill-opacity": 0.33
      }
    },
    {
      "type": "Feature",
      "geometry": {
        "type": "LineString",
        "coordinates": [
          [
            -71.4788598,
            -32.9491941,
            1523.9999512320016
          ],
          [
            -71.53108029971862,
            -32.68846718028244,
            2834.639909291523
          ],
          [
            -71.73683061261475,
            -32.634394753207225,
            1798.3199424537618
          ],
          [
            -71.88049057392286,
            -32.77358756392495,
            2804.159910266883
          ],
          [
            -71.69466619502546,
            -32.95599025048248,
            2895.599907340803
          ],
          [
            -71.42442880059053,
            -32.84513096095989,
            1889.759939527682
          ],
          [
            -71.37153412287418,
            -32.87748728471204,
            2468.8799209958424
          ],
          [
            -71.35054280164772,
            -32.9449025671243,
            1615.4399483059217
          ],
          [
            -71.59293616560137,
            -32.894321732320584,
            1798.3199424537618
          ]
        ]
      },
      "properties": {
        "id": 800,
        "title": "Air Race #9 at Base Aeronaval y Aeropuerto Concón",
        "description": "Your ASG29 is racing through the sky on this overcast late afternoon with almost no wind. The flight distance is 175 km.",
        "stroke": "#F96900",
        "stroke-opacity": 0.33
      }
    },
    {
      "type": "Feature",
      "geometry": {
        "type": "Point",
        "coordinates": [
          -71.56033382929148,
          -32.94764711794193,
          2225.0399287987225
        ]
      },
      "properties": {
        "id": 901,
        "title": "CP-FINISH",
        "desription": "Air Race #10 at Base Aeronaval y Aeropuerto Concón",
        "marker-symbol": "racetrack",
        "fill-opacity": 0.33
      }
    },
    {
      "type": "Feature",
      "geometry": {
        "type": "LineString",
        "coordinates": [
          [
            -71.4788598,
            -32.9491941,
            1523.9999512320016
          ],
          [
            -71.59126026570895,
            -32.913952703505046,
            2834.639909291523
          ],
          [
            -71.63645745964216,
            -32.9333404823024,
            1676.3999463552018
          ],
          [
            -71.66567065942094,
            -32.912788452473414,
            2072.639933675522
          ],
          [
            -71.51463227049467,
            -32.764537483544906,
            2072.639933675522
          ],
          [
            -71.43646841633885,
            -32.936460686695526,
            1554.4799502566416
          ],
          [
            -71.56033382929148,
            -32.94764711794193,
            2225.0399287987225
          ]
        ]
      },
      "properties": {
        "id": 900,
        "title": "Air Race #10 at Base Aeronaval y Aeropuerto Concón",
        "description": "Your ASG29 is racing through the sky on this late afternoon with wind from 320° at 18 kts. The flight distance is 81 km.",
        "stroke": "#3B429F",
        "stroke-opacity": 0.33
      }
    }
  ]
}