{
  "type": "FeatureCollection",
  "features": [
    {
      "type": "Feature",
      "geometry": {
        "type": "Point",
        "coordinates": [
          -104.5316574,
          33.3006936,
          1579.3515789214973
        ]
      },
      "properties": {
        "id": 0,
        "title": "KROW",
        "desription": "Air Race #1 at Roswell Industrial Air Center Airport",
        "marker-symbol": "1",
        "fill-opacity": 1
      }
    },
    {
      "type": "Feature",
      "geometry": {
        "type": "Point",
        "coordinates": [
          -104.5480430263838,
          33.311973300522276,
          1706.8799453798417
        ]
      },
      "properties": {
        "id": 1,
        "title": "CP-1",
        "desription": "Air Race #1 at Roswell Industrial Air Center Airport",
        "marker-symbol": "triangle",
        "fill-opacity": 1
      }
    },
    {
      "type": "Feature",
      "geometry": {
        "type": "Point",
        "coordinates": [
          -104.57290576989176,
          33.297266470218666,
          1676.3999463552018
        ]
      },
      "properties": {
        "id": 2,
        "title": "CP-2",
        "desription": "Air Race #1 at Roswell Industrial Air Center Airport",
        "marker-symbol": "triangle",
        "fill-opacity": 1
      }
    },
    {
      "type": "Feature",
      "geometry": {
        "type": "Point",
        "coordinates": [
          -104.55118618478751,
          33.25700925584293,
          1767.8399434291218
        ]
      },
      "properties": {
        "id": 3,
        "title": "CP-3",
        "desription": "Air Race #1 at Roswell Industrial Air Center Airport",
        "marker-symbol": "triangle",
        "fill-opacity": 1
      }
    },
    {
      "type": "Feature",
      "geometry": {
        "type": "Point",
        "coordinates": [
          -104.52864101281381,
          33.234106223010464,
          2103.1199327001623
        ]
      },
      "properties": {
        "id": 4,
        "title": "CP-4",
        "desription": "Air Race #1 at Roswell Industrial Air Center Airport",
        "marker-symbol": "triangle",
        "fill-opacity": 1
      }
    },
    {
      "type": "Feature",
      "geometry": {
        "type": "Point",
        "coordinates": [
          -104.48786316864872,
          33.212800044179644,
          1706.8799453798417
        ]
      },
      "properties": {
        "id": 5,
        "title": "CP-FINISH",
        "desription": "Air Race #1 at Roswell Industrial Air Center Airport",
        "marker-symbol": "racetrack",
        "fill-opacity": 1
      }
    },
    {
      "type": "Feature",
      "geometry": {
        "type": "LineString",
        "coordinates": [
          [
            -104.5316574,
            33.3006936,
            1579.3515789214973
          ],
          [
            -104.5480430263838,
            33.311973300522276,
            1706.8799453798417
          ],
          [
            -104.57290576989176,
            33.297266470218666,
            1676.3999463552018
          ],
          [
            -104.55118618478751,
            33.25700925584293,
            1767.8399434291218
          ],
          [
            -104.52864101281381,
            33.234106223010464,
            2103.1199327001623
          ],
          [
            -104.48786316864872,
            33.212800044179644,
            1706.8799453798417
          ]
        ]
      },
      "properties": {
        "id": 0,
        "title": "Air Race #1 at Roswell Industrial Air Center Airport",
        "description": "Your Pitts is racing through the sky on this early morning with almost no wind and moderate thermal activity. The flight distance is 29 km.",
        "stroke": "#FF1493",
        "stroke-opacity": 1
      }
    },
    {
      "type": "Feature",
      "geometry": {
        "type": "Point",
        "coordinates": [
          -104.49169192040644,
          33.243890194897254,
          1676.3999463552018
        ]
      },
      "properties": {
        "id": 101,
        "title": "CP-FINISH",
        "desription": "Air Race #2 at Roswell Industrial Air Center Airport",
        "marker-symbol": "racetrack",
        "fill-opacity": 0.33
      }
    },
    {
      "type": "Feature",
      "geometry": {
        "type": "LineString",
        "coordinates": [
          [
            -104.5316574,
            33.3006936,
            1579.3515789214973
          ],
          [
            -104.53140847921243,
            33.268236834433765,
            1889.759939527682
          ],
          [
            -104.52366990674885,
            33.26080982422213,
            1767.8399434291218
          ],
          [
            -104.5174893295665,
            33.24696750268867,
            1767.8399434291218
          ],
          [
            -104.50200469248855,
            33.25034463310323,
            2194.5599297740823
          ],
          [
            -104.49169192040644,
            33.243890194897254,
            1676.3999463552018
          ]
        ]
      },
      "properties": {
        "id": 100,
        "title": "Air Race #2 at Roswell Industrial Air Center Airport",
        "description": "Your Pitts is racing through the sky on this early morning with no wind and moderate thermal activity. The flight distance is 17 km.",
        "stroke": "#C2E812",
        "stroke-opacity": 0.33
      }
    },
    {
      "type": "Feature",
      "geometry": {
        "type": "Point",
        "coordinates": [
          -104.62070960520724,
          33.1844671120561,
          2103.1199327001623
        ]
      },
      "properties": {
        "id": 201,
        "title": "CP-FINISH",
        "desription": "Air Race #3 at Roswell Industrial Air Center Airport",
        "marker-symbol": "racetrack",
        "fill-opacity": 0.33
      }
    },
    {
      "type": "Feature",
      "geometry": {
        "type": "LineString",
        "coordinates": [
          [
            -104.5316574,
            33.3006936,
            1579.3515789214973
          ],
          [
            -104.50394704065148,
            33.26681426814886,
            1981.199936601602
          ],
          [
            -104.51720442901274,
            33.24434969554208,
            2042.1599346508822
          ],
          [
            -104.554976913941,
            33.246147149907465,
            1981.199936601602
          ],
          [
            -104.59657134289584,
            33.22247129712679,
            2011.679935626242
          ],
          [
            -104.62070960520724,
            33.1844671120561,
            2103.1199327001623
          ]
        ]
      },
      "properties": {
        "id": 200,
        "title": "Air Race #3 at Roswell Industrial Air Center Airport",
        "description": "Your Pitts is racing through the sky on this morning with wind from 350° at 13 kts and moderate thermal activity. The flight distance is 36 km.",
        "stroke": "#91F5AD",
        "stroke-opacity": 0.33
      }
    },
    {
      "type": "Feature",
      "geometry": {
        "type": "Point",
        "coordinates": [
          -104.48193468411037,
          33.28980774765847,
          2103.1199327001623
        ]
      },
      "properties": {
        "id": 301,
        "title": "CP-FINISH",
        "desription": "Air Race #4 at Roswell Industrial Air Center Airport",
        "marker-symbol": "racetrack",
        "fill-opacity": 0.33
      }
    },
    {
      "type": "Feature",
      "geometry": {
        "type": "LineString",
        "coordinates": [
          [
            -104.5316574,
            33.3006936,
            1579.3515789214973
          ],
          [
            -104.48193468411037,
            33.28980774765847,
            2103.1199327001623
          ]
        ]
      },
      "properties": {
        "id": 300,
        "title": "Air Race #4 at Roswell Industrial Air Center Airport",
        "description": "Your Pitts is racing through the sky on this morning with wind from 010° at 6 kts and moderate thermal activity. The flight distance is 10 km.",
        "stroke": "#F96900",
        "stroke-opacity": 0.33
      }
    },
    {
      "type": "Feature",
      "geometry": {
        "type": "Point",
        "coordinates": [
          -104.61141317081315,
          33.28211860531034,
          1981.199936601602
        ]
      },
      "properties": {
        "id": 401,
        "title": "CP-FINISH",
        "desription": "Air Race #5 at Roswell Industrial Air Center Airport",
        "marker-symbol": "racetrack",
        "fill-opacity": 0.33
      }
    },
    {
      "type": "Feature",
      "geometry": {
        "type": "LineString",
        "coordinates": [
          [
            -104.5316574,
            33.3006936,
            1579.3515789214973
          ],
          [
            -104.54887593650346,
            33.31767814478565,
            1981.199936601602
          ],
          [
            -104.57411011998006,
            33.311559981954204,
            1920.239938552322
          ],
          [
            -104.61141317081315,
            33.28211860531034,
            1981.199936601602
          ]
        ]
      },
      "properties": {
        "id": 400,
        "title": "Air Race #5 at Roswell Industrial Air Center Airport",
        "description": "Your Pitts is racing through the sky on this noon with almost no wind and moderate thermal activity. The flight distance is 18 km.",
        "stroke": "#3B429F",
        "stroke-opacity": 0.33
      }
    },
    {
      "type": "Feature",
      "geometry": {
        "type": "Point",
        "coordinates": [
          -104.4860799469836,
          33.30908379739145,
          1981.199936601602
        ]
      },
      "properties": {
        "id": 501,
        "title": "CP-FINISH",
        "desription": "Air Race #6 at Roswell Industrial Air Center Airport",
        "marker-symbol": "racetrack",
        "fill-opacity": 0.33
      }
    },
    {
      "type": "Feature",
      "geometry": {
        "type": "LineString",
        "coordinates": [
          [
            -104.5316574,
            33.3006936,
            1579.3515789214973
          ],
          [
            -104.4860799469836,
            33.30908379739145,
            1981.199936601602
          ]
        ]
      },
      "properties": {
        "id": 500,
        "title": "Air Race #6 at Roswell Industrial Air Center Airport",
        "description": "Your Pitts is racing through the sky on this noon with wind from 000° at undefined kts and lots of thermal activity. The flight distance is 9 km.",
        "stroke": "#FF1493",
        "stroke-opacity": 0.33
      }
    },
    {
      "type": "Feature",
      "geometry": {
        "type": "Point",
        "coordinates": [
          -104.56415951766685,
          33.2004670646772,
          1767.8399434291218
        ]
      },
      "properties": {
        "id": 601,
        "title": "CP-FINISH",
        "desription": "Air Race #7 at Roswell Industrial Air Center Airport",
        "marker-symbol": "racetrack",
        "fill-opacity": 0.33
      }
    },
    {
      "type": "Feature",
      "geometry": {
        "type": "LineString",
        "coordinates": [
          [
            -104.5316574,
            33.3006936,
            1579.3515789214973
          ],
          [
            -104.535209262703,
            33.26603267825086,
            1920.239938552322
          ],
          [
            -104.54839288457863,
            33.247664306743495,
            1889.759939527682
          ],
          [
            -104.57991202374956,
            33.22476193601237,
            2133.599931724802
          ],
          [
            -104.56415951766685,
            33.2004670646772,
            1767.8399434291218
          ]
        ]
      },
      "properties": {
        "id": 600,
        "title": "Air Race #7 at Roswell Industrial Air Center Airport",
        "description": "Your Pitts is racing through the sky on this afternoon with almost no wind and lots of thermal activity. The flight distance is 25 km.",
        "stroke": "#C2E812",
        "stroke-opacity": 0.33
      }
    },
    {
      "type": "Feature",
      "geometry": {
        "type": "Point",
        "coordinates": [
          -104.47196077876237,
          33.40289435125188,
          2103.1199327001623
        ]
      },
      "properties": {
        "id": 701,
        "title": "CP-FINISH",
        "desription": "Air Race #8 at Roswell Industrial Air Center Airport",
        "marker-symbol": "racetrack",
        "fill-opacity": 0.33
      }
    },
    {
      "type": "Feature",
      "geometry": {
        "type": "LineString",
        "coordinates": [
          [
            -104.5316574,
            33.3006936,
            1579.3515789214973
          ],
          [
            -104.5580130537228,
            33.329815323750424,
            1645.9199473305616
          ],
          [
            -104.54091788748318,
            33.370168137267704,
            2164.079930749442
          ],
          [
            -104.5167007093385,
            33.385411696350715,
            1615.4399483059217
          ],
          [
            -104.50099663415432,
            33.385176467317486,
            2164.079930749442
          ],
          [
            -104.47196077876237,
            33.40289435125188,
            2103.1199327001623
          ]
        ]
      },
      "properties": {
        "id": 700,
        "title": "Air Race #8 at Roswell Industrial Air Center Airport",
        "description": "Your Pitts is racing through the sky on this late afternoon with almost no wind and lots of thermal activity. The flight distance is 30 km.",
        "stroke": "#91F5AD",
        "stroke-opacity": 0.33
      }
    },
    {
      "type": "Feature",
      "geometry": {
        "type": "Point",
        "coordinates": [
          -104.54384831275227,
          33.42864611675949,
          1981.199936601602
        ]
      },
      "properties": {
        "id": 801,
        "title": "CP-FINISH",
        "desription": "Air Race #9 at Roswell Industrial Air Center Airport",
        "marker-symbol": "racetrack",
        "fill-opacity": 0.33
      }
    },
    {
      "type": "Feature",
      "geometry": {
        "type": "LineString",
        "coordinates": [
          [
            -104.5316574,
            33.3006936,
            1579.3515789214973
          ],
          [
            -104.51027265471367,
            33.31390790696721,
            1950.719937576962
          ],
          [
            -104.51795266912647,
            33.357081012469564,
            1950.719937576962
          ],
          [
            -104.54560988927952,
            33.38626560892759,
            1798.3199424537618
          ],
          [
            -104.54384831275227,
            33.42864611675949,
            1981.199936601602
          ]
        ]
      },
      "properties": {
        "id": 800,
        "title": "Air Race #9 at Roswell Industrial Air Center Airport",
        "description": "Your Pitts is racing through the sky on this late afternoon with wind from 000° at undefined kts and lots of thermal activity. The flight distance is 31 km.",
        "stroke": "#F96900",
        "stroke-opacity": 0.33
      }
    },
    {
      "type": "Feature",
      "geometry": {
        "type": "Point",
        "coordinates": [
          -104.57199492748333,
          33.31786363310115,
          1828.799941478402
        ]
      },
      "properties": {
        "id": 901,
        "title": "CP-FINISH",
        "desription": "Air Race #10 at Roswell Industrial Air Center Airport",
        "marker-symbol": "racetrack",
        "fill-opacity": 0.33
      }
    },
    {
      "type": "Feature",
      "geometry": {
        "type": "LineString",
        "coordinates": [
          [
            -104.5316574,
            33.3006936,
            1579.3515789214973
          ],
          [
            -104.53151500740489,
            33.315264891189116,
            1676.3999463552018
          ],
          [
            -104.53811909169272,
            33.328599634178076,
            2164.079930749442
          ],
          [
            -104.56411846123007,
            33.326753537682336,
            1737.359944404482
          ],
          [
            -104.57199492748333,
            33.31786363310115,
            1828.799941478402
          ]
        ]
      },
      "properties": {
        "id": 900,
        "title": "Air Race #10 at Roswell Industrial Air Center Airport",
        "description": "Your Pitts is racing through the sky on this gusty late afternoon with wind from 140° at 12 kts and lots of thermal activity. The flight distance is 12 km.",
        "stroke": "#3B429F",
        "stroke-opacity": 0.33
      }
    }
  ]
}